CTC1_L_00478001-01
1 47942U 23164EM  26070.40837963  .00000000  00000+0  00000-0 0  9996
2 47942  35.0000   0.0000 0000000   0.0000   0.0000 15.21936487    13
CTC1_L_00478002-01
1 47943U 25551PM  26070.40837963  .00000000  00000+0  00000-0 0  9999
2 47943  35.0000  12.0000 0000000   0.0000  48.0000 15.21936487    19
CTC1_L_00478003-01
1 47944U 23905F   26070.40837963  .00000000  00000+0  00000-0 0  9991
2 47944  35.0000  24.0000 0000000   0.0000  96.0000 15.21936487    16
CTC1_L_00478004-01
1 47945U 23710KF  26070.40837963  .00000000  00000+0  00000-0 0  9996
2 47945  35.0000  36.0000 0000000   0.0000 144.0000 15.21936487    14
CTC1_L_00478005-01
1 47946U 22679IT  26070.40837963  .00000000  00000+0  00000-0 0  9990
2 47946  35.0000  48.0000 0000000   0.0000 192.0000 15.21936487    11
CTC1_L_00478006-01
1 47947U 24131HH  26070.40837963  .00000000  00000+0  00000-0 0  9996
2 47947  35.0000  60.0000 0000000   0.0000 240.0000 15.21936487    10
CTC1_L_00478007-01
1 47948U 25406NE  26070.40837963  .00000000  00000+0  00000-0 0  9993
2 47948  35.0000  72.0000 0000000   0.0000 288.0000 15.21936487    16
CTC1_L_00478008-01
1 47949U 24561GD  26070.40837963  .00000000  00000+0  00000-0 0  9995
2 47949  35.0000  84.0000 0000000   0.0000 336.0000 15.21936487    14
CTC1_L_00478009-01
1 47950U 23031LK  26070.40837963  .00000000  00000+0  00000-0 0  9998
2 47950  35.0000  96.0000 0000000   0.0000  24.0000 15.21936487    13
CTC1_L_00478010-01
1 47951U 24788YF  26070.40837963  .00000000  00000+0  00000-0 0  9999
2 47951  35.0000 108.0000 0000000   0.0000  72.0000 15.21936487    11
CTC1_L_00478011-01
1 47952U 26461OY  26070.40837963  .00000000  00000+0  00000-0 0  9990
2 47952  35.0000 120.0000 0000000   0.0000 120.0000 15.21936487    10
CTC1_L_00478012-01
1 47953U 22230HN  26070.40837963  .00000000  00000+0  00000-0 0  9991
2 47953  35.0000 132.0000 0000000   0.0000 168.0000 15.21936487    16
CTC1_L_00478013-01
1 47954U 26904T   26070.40837963  .00000000  00000+0  00000-0 0  9994
2 47954  35.0000 144.0000 0000000   0.0000 216.0000 15.21936487    14
CTC1_L_00478014-01
1 47955U 26474SH  26070.40837963  .00000000  00000+0  00000-0 0  9997
2 47955  35.0000 156.0000 0000000   0.0000 264.0000 15.21936487    11
CTC1_L_00478015-01
1 47956U 25509TB  26070.40837963  .00000000  00000+0  00000-0 0  9996
2 47956  35.0000 168.0000 0000000   0.0000 312.0000 15.21936487    19
CTC1_L_00478016-01
1 47957U 23425LR  26070.40837963  .00000000  00000+0  00000-0 0  9992
2 47957  35.0000 180.0000 0000000   0.0000   0.0000 15.21936487    18
CTC1_L_00478017-01
1 47958U 24922CS  26070.40837963  .00000000  00000+0  00000-0 0  9996
2 47958  35.0000 192.0000 0000000   0.0000  48.0000 15.21936487    14
CTC1_L_00478018-01
1 47959U 22545O   26070.40837963  .00000000  00000+0  00000-0 0  9996
2 47959  35.0000 204.0000 0000000   0.0000  96.0000 15.21936487    12
CTC1_L_00478019-01
1 47960U 25286ZR  26070.40837963  .00000000  00000+0  00000-0 0  9993
2 47960  35.0000 216.0000 0000000   0.0000 144.0000 15.21936487    11
CTC1_L_00478020-01
1 47961U 22786HP  26070.40837963  .00000000  00000+0  00000-0 0  9996
2 47961  35.0000 228.0000 0000000   0.0000 192.0000 15.21936487    18
CTC1_L_00478021-01
1 47962U 22792AP  26070.40837963  .00000000  00000+0  00000-0 0  9994
2 47962  35.0000 240.0000 0000000   0.0000 240.0000 15.21936487    17
CTC1_L_00478022-01
1 47963U 26064OY  26070.40837963  .00000000  00000+0  00000-0 0  9991
2 47963  35.0000 252.0000 0000000   0.0000 288.0000 15.21936487    13
CTC1_L_00478023-01
1 47964U 22922RE  26070.40837963  .00000000  00000+0  00000-0 0  9991
2 47964  35.0000 264.0000 0000000   0.0000 336.0000 15.21936487    11
CTC1_L_00478024-01
1 47965U 22459QF  26070.40837963  .00000000  00000+0  00000-0 0  9997
2 47965  35.0000 276.0000 0000000   0.0000  24.0000 15.21936487    19
CTC1_L_00478025-01
1 47966U 22171ZK  26070.40837963  .00000000  00000+0  00000-0 0  9999
2 47966  35.0000 288.0000 0000000   0.0000  72.0000 15.21936487    16
CTC1_L_00478026-01
1 47967U 24069SD  26070.40837963  .00000000  00000+0  00000-0 0  9998
2 47967  35.0000 300.0000 0000000   0.0000 120.0000 15.21936487    16
CTC1_L_00478027-01
1 47968U 26953OW  26070.40837963  .00000000  00000+0  00000-0 0  9993
2 47968  35.0000 312.0000 0000000   0.0000 168.0000 15.21936487    12
CTC1_L_00478028-01
1 47969U 25969CO  26070.40837963  .00000000  00000+0  00000-0 0  9990
2 47969  35.0000 324.0000 0000000   0.0000 216.0000 15.21936487    10
CTC1_L_00478029-01
1 47970U 26529MH  26070.40837963  .00000000  00000+0  00000-0 0  9995
2 47970  35.0000 336.0000 0000000   0.0000 264.0000 15.21936487    18
CTC1_L_00478030-01
1 47971U 22418YI  26070.40837963  .00000000  00000+0  00000-0 0  9999
2 47971  35.0000 348.0000 0000000   0.0000 312.0000 15.21936487    16
